{
  "elements": [

{
  "type": "node",
  "id": 231652942,
  "lat": 35.6791456,
  "lon": -0.6433008,
  "tags": {
    "highway": "traffic_signals"
  }
},
{
  "type": "node",
  "id": 231652945,
  "lat": 35.6794461,
  "lon": -0.6433215,
  "tags": {
    "highway": "traffic_signals"
  }
},
{
  "type": "node",
  "id": 321613356,
  "lat": 35.6903484,
  "lon": -0.6439067,
  "tags": {
    "highway": "traffic_signals"
  }
},
{
  "type": "node",
  "id": 321614162,
  "lat": 35.6889146,
  "lon": -0.6432654,
  "tags": {
    "highway": "traffic_signals"
  }
},
{
  "type": "node",
  "id": 321614187,
  "lat": 35.6937811,
  "lon": -0.6320401,
  "tags": {
    "highway": "traffic_signals",
    "traffic_signals": "traffic_lights",
    "traffic_signals:direction": "forward"
  }
},
{
  "type": "node",
  "id": 321617076,
  "lat": 35.6901467,
  "lon": -0.6438128,
  "tags": {
    "highway": "traffic_signals"
  }
},
{
  "type": "node",
  "id": 321617562,
  "lat": 35.6817830,
  "lon": -0.6368311,
  "tags": {
    "highway": "traffic_signals"
  }
},
{
  "type": "node",
  "id": 321617565,
  "lat": 35.6890268,
  "lon": -0.6433353,
  "tags": {
    "highway": "traffic_signals"
  }
},
{
  "type": "node",
  "id": 321618808,
  "lat": 35.6706306,
  "lon": -0.6376569,
  "tags": {
    "highway": "traffic_signals"
  }
},
{
  "type": "node",
  "id": 321620739,
  "lat": 35.6755704,
  "lon": -0.6573737,
  "tags": {
    "highway": "traffic_signals"
  }
},
{
  "type": "node",
  "id": 321620913,
  "lat": 35.6736953,
  "lon": -0.6395720,
  "tags": {
    "highway": "traffic_signals"
  }
},
{
  "type": "node",
  "id": 321625008,
  "lat": 35.6843201,
  "lon": -0.6148993,
  "tags": {
    "highway": "traffic_signals",
    "traffic_signals": "signal",
    "traffic_signals:direction": "backward"
  }
},
{
  "type": "node",
  "id": 321682687,
  "lat": 35.6756056,
  "lon": -0.6525958,
  "tags": {
    "highway": "traffic_signals"
  }
},
{
  "type": "node",
  "id": 321683301,
  "lat": 35.6756713,
  "lon": -0.6573470,
  "tags": {
    "highway": "traffic_signals"
  }
},
{
  "type": "node",
  "id": 321693111,
  "lat": 35.7139704,
  "lon": -0.6121015,
  "tags": {
    "highway": "traffic_signals",
    "name": "الطريق الحزامية رقم 2",
    "name:ar": "الطريق الحزامية رقم 2",
    "name:fr": "ft"
  }
},
{
  "type": "node",
  "id": 321695909,
  "lat": 35.6900089,
  "lon": -0.6195828,
  "tags": {
    "highway": "traffic_signals",
    "traffic_signals": "signal",
    "traffic_signals:direction": "forward"
  }
},
{
  "type": "node",
  "id": 321696250,
  "lat": 35.6931624,
  "lon": -0.6242062,
  "tags": {
    "highway": "traffic_signals"
  }
},
{
  "type": "node",
  "id": 321696273,
  "lat": 35.6929415,
  "lon": -0.6242287,
  "tags": {
    "highway": "traffic_signals"
  }
},
{
  "type": "node",
  "id": 328260534,
  "lat": 35.7124471,
  "lon": -0.5969991,
  "tags": {
    "highway": "traffic_signals"
  }
},
{
  "type": "node",
  "id": 370591258,
  "lat": 35.6896684,
  "lon": -0.6246424,
  "tags": {
    "highway": "traffic_signals"
  }
},
{
  "type": "node",
  "id": 415834783,
  "lat": 35.6903320,
  "lon": -0.6209364,
  "tags": {
    "highway": "traffic_signals",
    "name": "الطريق الحزامية رقم 2",
    "name:ar": "الطريق الحزامية رقم 2",
    "name:fr": "ft"
  }
},
{
  "type": "node",
  "id": 428438295,
  "lat": 35.6757622,
  "lon": -0.6408243,
  "tags": {
    "highway": "traffic_signals"
  }
},
{
  "type": "node",
  "id": 428863665,
  "lat": 35.6946105,
  "lon": -0.6160686,
  "tags": {
    "highway": "traffic_signals"
  }
},
{
  "type": "node",
  "id": 810645806,
  "lat": 35.7124798,
  "lon": -0.5971227,
  "tags": {
    "highway": "traffic_signals",
    "traffic_signals": "signal",
    "traffic_signals:direction": "forward"
  }
},
{
  "type": "node",
  "id": 853230601,
  "lat": 35.7169700,
  "lon": -0.5963856,
  "tags": {
    "highway": "traffic_signals"
  }
},
{
  "type": "node",
  "id": 1641540904,
  "lat": 35.7168797,
  "lon": -0.5919267,
  "tags": {
    "highway": "traffic_signals"
  }
},
{
  "type": "node",
  "id": 1666605487,
  "lat": 35.6735732,
  "lon": -0.6396665,
  "tags": {
    "highway": "traffic_signals"
  }
},
{
  "type": "node",
  "id": 1666605901,
  "lat": 35.6794880,
  "lon": -0.6430477,
  "tags": {
    "highway": "traffic_signals"
  }
},
{
  "type": "node",
  "id": 1666606216,
  "lat": 35.6705526,
  "lon": -0.6378301,
  "tags": {
    "highway": "traffic_signals"
  }
},
{
  "type": "node",
  "id": 1672395293,
  "lat": 35.6907764,
  "lon": -0.6202561,
  "tags": {
    "highway": "traffic_signals",
    "name": "الطريق الحزامية رقم 2",
    "name:ar": "الطريق الحزامية رقم 2",
    "name:fr": "ft",
    "traffic_signals": "traffic_lights",
    "traffic_signals:direction": "forward"
  }
},
{
  "type": "node",
  "id": 1672395308,
  "lat": 35.6908461,
  "lon": -0.6203587,
  "tags": {
    "highway": "traffic_signals"
  }
},
{
  "type": "node",
  "id": 2416330951,
  "lat": 35.6910160,
  "lon": -0.6215120,
  "tags": {
    "highway": "traffic_signals",
    "traffic_signals": "signal",
    "traffic_signals:direction": "forward"
  }
},
{
  "type": "node",
  "id": 3129772465,
  "lat": 35.7168863,
  "lon": -0.5964818,
  "tags": {
    "highway": "traffic_signals"
  }
},
{
  "type": "node",
  "id": 3136645668,
  "lat": 35.7169778,
  "lon": -0.5964670,
  "tags": {
    "highway": "traffic_signals"
  }
},
{
  "type": "node",
  "id": 3186191612,
  "lat": 35.6842707,
  "lon": -0.6148064,
  "tags": {
    "highway": "traffic_signals",
    "traffic_signals": "traffic_lights",
    "traffic_signals:direction": "forward"
  }
},
{
  "type": "node",
  "id": 3319931224,
  "lat": 35.6872070,
  "lon": -0.6243007,
  "tags": {
    "highway": "traffic_signals"
  }
},
{
  "type": "node",
  "id": 4279226489,
  "lat": 35.7170805,
  "lon": -0.5915612,
  "tags": {
    "highway": "traffic_signals"
  }
},
{
  "type": "node",
  "id": 4571980248,
  "lat": 35.6819097,
  "lon": -0.6369344,
  "tags": {
    "highway": "traffic_signals"
  }
},
{
  "type": "node",
  "id": 5145497021,
  "lat": 35.6945670,
  "lon": -0.6160040,
  "tags": {
    "highway": "traffic_signals"
  }
},
{
  "type": "node",
  "id": 6849408386,
  "lat": 35.6757060,
  "lon": -0.6525284,
  "tags": {
    "highway": "traffic_signals"
  }
},
{
  "type": "node",
  "id": 6856436375,
  "lat": 35.6792900,
  "lon": -0.6429082,
  "tags": {
    "highway": "traffic_signals"
  }
},
{
  "type": "node",
  "id": 8756467143,
  "lat": 35.6901684,
  "lon": -0.6209142,
  "tags": {
    "highway": "traffic_signals",
    "traffic_signals": "signal",
    "traffic_signals:direction": "forward"
  }
},
{
  "type": "node",
  "id": 8757708781,
  "lat": 35.6872455,
  "lon": -0.6242570,
  "tags": {
    "highway": "traffic_signals"
  }
},
{
  "type": "node",
  "id": 8757708786,
  "lat": 35.6886061,
  "lon": -0.6226700,
  "tags": {
    "highway": "traffic_signals"
  }
},
{
  "type": "node",
  "id": 8757708787,
  "lat": 35.6886518,
  "lon": -0.6227549,
  "tags": {
    "highway": "traffic_signals"
  }
},
{
  "type": "node",
  "id": 8757708788,
  "lat": 35.6872239,
  "lon": -0.6243976,
  "tags": {
    "highway": "traffic_signals"
  }
},
{
  "type": "node",
  "id": 8757708792,
  "lat": 35.6756628,
  "lon": -0.6409720,
  "tags": {
    "highway": "traffic_signals",
    "traffic_signals:direction": "forward"
  }
},
{
  "type": "node",
  "id": 12597637056,
  "lat": 35.6872595,
  "lon": -0.6243564,
  "tags": {
    "highway": "traffic_signals"
  }
}

  ]
}
